STARLINK-3387           
1 51125U 22005X   23044.10012060  .00019650  00000+0  12493-2 0  9997
2 51125  53.2153 289.6472 0000758  84.9122 275.1956 15.08839898 60672
STARLINK-3386           
1 51126U 22005Y   23044.10748383  .00005206  00000+0  34502-3 0  9990
2 51126  53.2152 289.6140 0002009  79.4691 280.6528 15.08833214 60688
STARLINK-3370           
1 51127U 22005Z   23044.10380432  .00008345  00000+0  54192-3 0  9992
2 51127  53.2146 289.6298 0001998  58.3427 301.7759 15.08830980 60683
STARLINK-3400           
1 51128U 22005AA  23044.08538869  .00017119  00000+0  10907-2 0  9993
2 51128  53.2158 289.7096 0001580  85.3632 274.7540 15.08851843 60676
STARLINK-3396           
1 51129U 22005AB  23044.04588117  .00000410  00000+0  43879-4 0  9993
2 51129  53.2162 289.8882 0001434  87.5717 272.5439 15.08824813 60683
STARLINK-3395           
1 51130U 22005AC  23043.69900158  .00011816  00000+0  75951-3 0  9995
2 51130  53.2158 291.4492 0001124  92.9570 267.1550 15.08828163 60618
STARLINK-3388           
1 51131U 22005AD  23043.75788257  .00011574  00000+0  74453-3 0  9994
2 51131  53.2131 291.1878 0001204  76.8362 283.2764 15.08818400 60624
STARLINK-3393           
1 51132U 22005AE  23044.09276320  .00010630  00000+0  68482-3 0  9993
2 51132  53.2133 289.6834 0002084  93.7115 266.4116 15.08846143 60676
STARLINK-3356           
1 51133U 22005AF  23044.08172449  .00035922  00000+0  22632-2 0  9997
2 51133  53.2149 289.7300 0000924  68.3639 291.7452 15.08847660 60672
STARLINK-3183           
1 51134U 22005AG  23044.05047661  .00031704  00000+0  20005-2 0  9998
2 51134  53.2151 279.8681 0000837  85.2161 274.8927 15.08852385 60814
STARLINK-3363           
1 51135U 22005AH  23044.07804363  .00010285  00000+0  66333-3 0  9997
2 51135  53.2137 289.7458 0001266  55.8527 304.2585 15.08841609 60676
STARLINK-3253           
1 51136U 22005AJ  23044.07901671  .00010775  00000+0  69444-3 0  9998
2 51136  53.2118 289.7462 0001431  56.5569 303.5560 15.08819089 60682
STARLINK-3180           
1 51137U 22005AK  23043.73580259  .00012306  00000+0  79008-3 0  9995
2 51137  53.2121 291.2865 0001947  87.2653 272.8562 15.08832343 60621
STARLINK-3177           
1 51138U 22005AL  23044.07436418  .00043028  00000+0  27042-2 0  9996
2 51138  53.2142 289.7637 0001417  65.7258 294.3882 15.08853402 60676
STARLINK-3172           
1 51139U 22005AM  23044.05964031  .00023281  00000+0  14758-2 0  9991
2 51139  53.2129 289.8308 0001036  93.5134 266.5976 15.08845046 60677
STARLINK-3175           
1 51140U 22005AN  23043.67324430  .00012485  00000+0  80138-3 0  9993
2 51140  53.2144 291.5666 0001580  81.2836 278.8335 15.08828631 60610
STARLINK-3179           
1 51141U 22005AP  23044.11852324  .00016127  00000+0  10290-2 0  9990
2 51141  53.2147 289.5649 0001473  78.0825 282.0332 15.08842295 60688
STARLINK-3369           
1 51142U 22005AQ  23043.38440113  .00017017  00000+0  10851-2 0  9990
2 51142  53.2135 282.8603 0001829  82.8786 277.2414 15.08825377 59593
STARLINK-3184           
1 51143U 22005AR  23043.44048255  .00003289  00000+0  22474-3 0  9990
2 51143  53.2156 302.6083 0002029  87.8675 272.2550 15.08824753 59329
STARLINK-3185           
1 51144U 22005AS  23043.39356002  .00001975  00000+0  14221-3 0  9998
2 51144  53.2125 292.8208 0001376  83.1424 276.9724 15.08827719 59464
STARLINK-3365           
1 51145U 22005AT  23043.70176197  .00054597  00000+0  34239-2 0  9997
2 51145  53.2147 301.4335 0001482  86.4526 273.6636 15.08821101 60472
STARLINK-3354           
1 51146U 22005AU  23044.06331734  .00002300  00000+0  16253-3 0  9990
2 51146  53.2143 289.8134 0000929  93.6371 266.4728 15.08839812 60670
STARLINK-3352           
1 51147U 22005AV  23044.10652925  .00231546  00000+0  14003-1 0  9999
2 51147  53.2142 299.6197 0006185 270.8106  89.2177 15.09080767 60546
STARLINK-3359           
1 51148U 22005AW  23044.09648434  .00000946  00000+0  77582-4 0  9990
2 51148  53.2142 299.6709 0002064 100.0509 260.0716 15.08826221 60538
STARLINK-3360           
1 51149U 22005AX  23044.09183781  .00001798  00000+0  13110-3 0  9992
2 51149  53.2171 299.6753 0001164 101.0370 259.0753 15.08825424 60530
STARLINK-3357           
1 51150U 22005AY  23044.04860175  .00011785  00000+0  75743-3 0  9995
2 51150  53.2146 289.8801 0001097  71.3899 288.7212 15.08834842 60677
STARLINK-3361           
1 51151U 22005AZ  23044.08448300  .00022971  00000+0  14567-2 0  9997
2 51151  53.2157 299.7102 0001981  55.9784 304.1396 15.08839255 60531
STARLINK-3364           
1 51152U 22005BA  23044.08814607  .00016703  00000+0  10645-2 0  9994
2 51152  53.2147 299.6956 0001714  81.4757 278.6429 15.08858822 60538
USA 324                 
1 51280U 22006A   23031.42201988 -.00000232  00000+0  00000+0 0  9995
2 51280   0.3487  94.4797 0020353 223.6106  71.9055  0.99612038  3753
USA 325                 
1 51281U 22006B   23036.11021450 -.00000300  00000+0  00000+0 0  9997
2 51281   0.1731  93.3590 0006225 300.9498 233.0562  1.00588885  3791
L-SAR 01A               
1 51284U 22007A   23044.28188772 -.00000116  00000+0 -67017-5 0  9992
2 51284  97.8099  53.1829 0001463  72.6757 287.4525 14.88415689 57010
ASCENT                  
1 51287U 21118E   23041.64785976 -.00000277  00000+0  00000+0 0  9993
2 51287   1.0515  94.4780 0002459 152.2547 208.1172  1.01253278  3941
ELSA-D CLIENT           
1 51288U 21022AQ  23044.14442973  .00014525  00000+0  88064-3 0  9993
2 51288  97.5075 304.1324 0018568  38.4896 321.7654 15.10514245 57864
CSG-2                   
1 51444U 22008A   23044.03484705  .00001018  00000+0  13433-3 0  9990
2 51444  97.8881 229.2826 0001286  83.8855 276.2519 14.82166352 55859
STARLINK-3167           
1 51460U 22010E   23044.03572100  .00007816  00000+0  50860-3 0  9995
2 51460  53.2134 269.9361 0001735  96.3085 263.8105 15.08842769 58085
STARLINK-3181           
1 51461U 22010F   23043.92164058  .00011993  00000+0  77041-3 0  9993
2 51461  53.2143 270.4455 0001110  84.1492 275.9626 15.08834493 58123
STARLINK-3166           
1 51462U 22010G   23044.05043855  .00006548  00000+0  42902-3 0  9998
2 51462  53.2139 269.8692 0001112  92.8320 267.2799 15.08846133 58110
STARLINK-3419           
1 51463U 22010H   23044.02468105  .00008323  00000+0  54042-3 0  9996
2 51463  53.2140 269.9855 0001208  86.1376 273.9754 15.08838929 58083
STARLINK-3189           
1 51464U 22010J   23043.91060081  .00004084  00000+0  27460-3 0  9999
2 51464  53.2138 270.4953 0001094  83.2624 276.8492 15.08832840 58070
STARLINK-3401           
1 51465U 22010K   23043.90692205  .00015450  00000+0  98652-3 0  9998
2 51465  53.2124 270.5162 0002211  84.9248 275.1997 15.08844969 58124
STARLINK-3178           
1 51467U 22010M   23043.88853247 -.00009714  00000+0 -59373-3 0  9997
2 51467  53.2123 270.5990 0001140  62.4201 297.6907 15.08798947 58117
STARLINK-3174           
1 51468U 22010N   23043.63460314  .00019887  00000+0  12642-2 0  9997
2 51468  53.2138 271.7374 0001067  69.5613 290.5494 15.08836550 58088
STARLINK-3182           
1 51469U 22010P   23043.91427768  .00005096  00000+0  33801-3 0  9993
2 51469  53.2138 270.4812 0001166  91.1317 268.9809 15.08840641 58124
STARLINK-3165           
1 51471U 22010R   23044.03207469  .00061760  00000+0  31983-2 0  9992
2 51471  53.2165 262.6353 0000910 190.0569 170.0408 15.15646398 58246
STARLINK-3415           
1 51472U 22010S   23043.63092100  .00000846  00000+0  71246-4 0  9998
2 51472  53.2144 271.7542 0001444  71.0434 289.0714 15.08830000 58087
COSMOS 2553             
1 51511U 22011A   23043.63434516 -.00000045  00000+0 -27687-3 0  9996
2 51511  67.0940  32.1489 0003659 273.8361  86.2164 11.32875550 42180
ONEWEB-0410             
1 51622U 22012A   23043.53424188  .00000103  00000+0  23189-3 0  9999
2 51622  87.9105 248.3606 0003001 102.3236 257.8232 13.17650231 52957
ONEWEB-0411             
1 51623U 22012B   23043.36292700 -.00000489  00000+0 -14376-2 0  9990
2 51623  87.8741 278.8723 0001608 102.7419 257.3888 13.10369611 49409
ONEWEB-0415             
1 51624U 22012C   23043.35981288 -.00000425  00000+0 -12540-2 0  9997
2 51624  87.8781 278.8506 0001144 101.8346 258.2909 13.10369155 49404
ONEWEB-0416             
1 51625U 22012D   23043.21801741 -.00000604  00000+0 -17656-2 0  9990
2 51625  87.8784 278.8686 0001372  74.8764 285.2515 13.10373704 50717
ONEWEB-0422             
1 51626U 22012E   23043.54043544  .00000099  00000+0  22068-3 0  9996
2 51626  87.9069 248.3868 0001408  46.4097 313.7151 13.17650761 53065
ONEWEB-0423             
1 51627U 22012F   23043.53576849 -.00000298  00000+0 -80153-3 0  9997
2 51627  87.9048 248.3346 0001640  95.2300 264.9019 13.17647478 52959
ONEWEB-0425             
1 51628U 22012G   23043.38008397 -.00000404  00000+0 -11934-2 0  9998
2 51628  87.8786 278.8362 0002143  74.4210 285.7154 13.10376459 49444
ONEWEB-0428             
1 51629U 22012H   23043.36137636 -.00000499  00000+0 -14650-2 0  9998
2 51629  87.8779 278.8477 0001258  58.5272 301.5978 13.10371879 49409
ONEWEB-0431             
1 51630U 22012J   23043.16034266 -.00000283  00000+0 -84823-3 0  9994
2 51630  87.8772 278.8937 0000601  92.4620 267.6576 13.10374661 50725
ONEWEB-0434             
1 51631U 22012K   23044.07039767 -.00000761  00000+0 -22161-2 0  9994
2 51631  87.8791 278.7108 0001392  63.1376 296.9893 13.10373651 50823
ONEWEB-0435             
1 51632U 22012L   23043.39254842  .00000103  00000+0  25814-3 0  9999
2 51632  87.8787 278.8415 0001177  50.1869 309.9361 13.10376299 49436
ONEWEB-0436             
1 51633U 22012M   23043.53269349  .00000093  00000+0  20666-3 0  9992
2 51633  87.9106 248.3555 0001480  73.8804 286.2491 13.17649416 52939
ONEWEB-0438             
1 51634U 22012N   23043.37540029 -.00000658  00000+0 -19212-2 0  9995
2 51634  87.8784 278.8447 0001758  77.5999 282.5325 13.10375873 49468
